start=new Date('2023-04-08T00:00:00.000Z').valueOf();
sats=[{"PERIOD":"95.437","REF_FRAME":"TEME","MEAN_MOTION":"15.08841481","REV_AT_EPOCH":"6929","TLE_LINE1":"1 50818U 22001R   23097.50157688  .00002417  00000-0  16987-3 0  9996","EPHEMERIS_TYPE":"0","ELEMENT_SET_NO":"999","TIME_SYSTEM":"UTC","OBJECT_TYPE":"PAYLOAD","TLE_LINE2":"2 50818  53.2169 279.9160 0001395  73.5268 286.5877 15.08841481 69292","ARG_OF_PERICENTER":"73.5268","BSTAR":"0.00016987000000","CLASSIFICATION_TYPE":"U","RA_OF_ASC_NODE":"279.9160","OBJECT_NAME":"STARLINK-3336","MEAN_ELEMENT_THEORY":"SGP4","ECCENTRICITY":"0.00013950","DECAY_DATE":null,"SITE":"AFETR","RCS_SIZE":"LARGE","COUNTRY_CODE":"US","LAUNCH_DATE":"2022-01-06","SEMIMAJOR_AXIS":"6917.876","OBJECT_ID":"2022-001R","PERIAPSIS":"538.776","MEAN_ANOMALY":"286.5877","INCLINATION":"53.2169","GP_ID":"229685454","CENTER_NAME":"EARTH","FILE":"3882626","MEAN_MOTION_DOT":"0.00002417","MEAN_MOTION_DDOT":"0.0000000000000","APOAPSIS":"540.706","NORAD_CAT_ID":"50818","EPOCH":"2023-04-07T12:02:16.242432"},{"MEAN_ELEMENT_THEORY":"SGP4","OBJECT_NAME":"STARLINK-3327","CLASSIFICATION_TYPE":"U","RA_OF_ASC_NODE":"279.8799","SEMIMAJOR_AXIS":"6917.871","OBJECT_ID":"2022-001S","COUNTRY_CODE":"US","LAUNCH_DATE":"2022-01-06","RCS_SIZE":"LARGE","SITE":"AFETR","DECAY_DATE":null,"ECCENTRICITY":"0.00011750","GP_ID":"229683707","CENTER_NAME":"EARTH","MEAN_ANOMALY":"297.5257","PERIAPSIS":"538.924","INCLINATION":"53.2135","EPOCH":"2023-04-07T12:12:51.968448","NORAD_CAT_ID":"50819","MEAN_MOTION_DDOT":"0.0000000000000","APOAPSIS":"540.549","FILE":"3882626","MEAN_MOTION_DOT":"0.00003214","REV_AT_EPOCH":"6930","ELEMENT_SET_NO":"999","TLE_LINE1":"1 50819U 22001S   23097.50893482  .00003214  00000-0  21990-3 0  9992","EPHEMERIS_TYPE":"0","PERIOD":"95.437","MEAN_MOTION":"15.08842923","REF_FRAME":"TEME","OBJECT_TYPE":"PAYLOAD","TIME_SYSTEM":"UTC","BSTAR":"0.00021990000000","TLE_LINE2":"2 50819  53.2135 279.8799 0001175  62.5855 297.5257 15.08842923 69307","ARG_OF_PERICENTER":"62.5855"},{"BSTAR":"0.00017060000000","ARG_OF_PERICENTER":"89.4466","TLE_LINE2":"2 50820  53.2159 279.6627 0001133  89.4466 270.6656 15.08837763 69304","MEAN_MOTION":"15.08837763","REF_FRAME":"TEME","PERIOD":"95.438","TLE_LINE1":"1 50820U 22001T   23097.55677521  .00002428  00000-0  17060-3 0  9992","EPHEMERIS_TYPE":"0","ELEMENT_SET_NO":"999","REV_AT_EPOCH":"6930","TIME_SYSTEM":"UTC","OBJECT_TYPE":"PAYLOAD","INCLINATION":"53.2159","PERIAPSIS":"538.968","MEAN_ANOMALY":"270.6656","GP_ID":"229683957","CENTER_NAME":"EARTH","APOAPSIS":"540.536","MEAN_MOTION_DDOT":"0.0000000000000","MEAN_MOTION_DOT":"0.00002428","FILE":"3882626","EPOCH":"2023-04-07T13:21:45.378144","NORAD_CAT_ID":"50820","RA_OF_ASC_NODE":"279.6627","CLASSIFICATION_TYPE":"U","MEAN_ELEMENT_THEORY":"SGP4","OBJECT_NAME":"STARLINK-3339","RCS_SIZE":"LARGE","DECAY_DATE":null,"ECCENTRICITY":"0.00011330","SITE":"AFETR","OBJECT_ID":"2022-001T","SEMIMAJOR_AXIS":"6917.887","LAUNCH_DATE":"2022-01-06","COUNTRY_CODE":"US"},{"MEAN_ANOMALY":"273.0796","PERIAPSIS":"539.010","INCLINATION":"53.2164","CENTER_NAME":"EARTH","GP_ID":"229685208","APOAPSIS":"540.432","MEAN_MOTION_DDOT":"0.0000000000000","MEAN_MOTION_DOT":"0.00000233","FILE":"3882626","EPOCH":"2023-04-07T05:03:37.236096","NORAD_CAT_ID":"50821","RA_OF_ASC_NODE":"281.2203","CLASSIFICATION_TYPE":"U","MEAN_ELEMENT_THEORY":"SGP4","OBJECT_NAME":"STARLINK-3346","RCS_SIZE":"LARGE","ECCENTRICITY":"0.00010280","DECAY_DATE":null,"SITE":"AFETR","OBJECT_ID":"2022-001U","SEMIMAJOR_AXIS":"6917.856","LAUNCH_DATE":"2022-01-06","COUNTRY_CODE":"US","BSTAR":"0.00003268300000","ARG_OF_PERICENTER":"87.0313","TLE_LINE2":"2 50821  53.2164 281.2203 0001028  87.0313 273.0796 15.08847988 69254","MEAN_MOTION":"15.08847988","REF_FRAME":"TEME","PERIOD":"95.437","ELEMENT_SET_NO":"999","TLE_LINE1":"1 50821U 22001U   23097.21084764  .00000233  00000-0  32683-4 0  9998","EPHEMERIS_TYPE":"0","REV_AT_EPOCH":"6925","TIME_SYSTEM":"UTC","OBJECT_TYPE":"PAYLOAD"},{"APOAPSIS":"540.561","MEAN_MOTION_DDOT":"0.0000000000000","MEAN_MOTION_DOT":"0.00005593","FILE":"3882626","EPOCH":"2023-04-07T11:35:46.197312","NORAD_CAT_ID":"50822","PERIAPSIS":"538.883","INCLINATION":"53.2164","MEAN_ANOMALY":"263.7432","CENTER_NAME":"EARTH","GP_ID":"229684954","RCS_SIZE":"LARGE","DECAY_DATE":null,"ECCENTRICITY":"0.00012130","SITE":"AFETR","OBJECT_ID":"2022-001V","SEMIMAJOR_AXIS":"6917.857","LAUNCH_DATE":"2022-01-06","COUNTRY_CODE":"US","RA_OF_ASC_NODE":"279.9942","CLASSIFICATION_TYPE":"U","MEAN_ELEMENT_THEORY":"SGP4","OBJECT_NAME":"STARLINK-3343","BSTAR":"0.00036916000000","ARG_OF_PERICENTER":"96.3698","TLE_LINE2":"2 50822  53.2164 279.9942 0001213  96.3698 263.7432 15.08847653 69290","TIME_SYSTEM":"UTC","OBJECT_TYPE":"PAYLOAD","REF_FRAME":"TEME","MEAN_MOTION":"15.08847653","PERIOD":"95.437","EPHEMERIS_TYPE":"0","TLE_LINE1":"1 50822U 22001V   23097.48317358  .00005593  00000-0  36916-3 0  9992","ELEMENT_SET_NO":"999","REV_AT_EPOCH":"6929"},{"BSTAR":"0.00013238000000","TLE_LINE2":"2 50823  53.2134 279.8433 0000885  87.7574 272.3520 15.08841961 69305","ARG_OF_PERICENTER":"87.7574","PERIOD":"95.437","MEAN_MOTION":"15.08841961","REF_FRAME":"TEME","REV_AT_EPOCH":"6930","TLE_LINE1":"1 50823U 22001W   23097.51629361  .00001820  00000-0  13238-3 0  9998","ELEMENT_SET_NO":"999","EPHEMERIS_TYPE":"0","TIME_SYSTEM":"UTC","OBJECT_TYPE":"PAYLOAD","PERIAPSIS":"539.127","MEAN_ANOMALY":"272.3520","INCLINATION":"53.2134","CENTER_NAME":"EARTH","GP_ID":"229684208","MEAN_MOTION_DDOT":"0.0000000000000","APOAPSIS":"540.352","FILE":"3882626","MEAN_MOTION_DOT":"0.00001820","EPOCH":"2023-04-07T12:23:27.767904","NORAD_CAT_ID":"50823","CLASSIFICATION_TYPE":"U","RA_OF_ASC_NODE":"279.8433","MEAN_ELEMENT_THEORY":"SGP4","OBJECT_NAME":"STARLINK-3334","RCS_SIZE":"LARGE","DECAY_DATE":null,"ECCENTRICITY":"0.00008850","SITE":"AFETR","SEMIMAJOR_AXIS":"6917.874","OBJECT_ID":"2022-001W","COUNTRY_CODE":"US","LAUNCH_DATE":"2022-01-06"},{"BSTAR":"0.00012731000000","TLE_LINE2":"2 50824  53.2149 281.1987 0001131  77.9557 282.1562 15.08841775 69251","ARG_OF_PERICENTER":"77.9557","TIME_SYSTEM":"UTC","OBJECT_TYPE":"PAYLOAD","PERIOD":"95.437","REF_FRAME":"TEME","MEAN_MOTION":"15.08841775","REV_AT_EPOCH":"6925","ELEMENT_SET_NO":"999","TLE_LINE1":"1 50824U 22001X   23097.21453405  .00001739  00000-0  12731-3 0  9996","EPHEMERIS_TYPE":"0","MEAN_MOTION_DDOT":"0.0000000000000","APOAPSIS":"540.522","FILE":"3882626","MEAN_MOTION_DOT":"0.00001739","EPOCH":"2023-04-07T05:08:55.741920","NORAD_CAT_ID":"50824","INCLINATION":"53.2149","PERIAPSIS":"538.958","MEAN_ANOMALY":"282.1562","CENTER_NAME":"EARTH","GP_ID":"229684458","RCS_SIZE":"LARGE","ECCENTRICITY":"0.00011310","DECAY_DATE":null,"SITE":"AFETR","SEMIMAJOR_AXIS":"6917.875","OBJECT_ID":"2022-001X","COUNTRY_CODE":"US","LAUNCH_DATE":"2022-01-06","CLASSIFICATION_TYPE":"U","RA_OF_ASC_NODE":"281.1987","MEAN_ELEMENT_THEORY":"SGP4","OBJECT_NAME":"STARLINK-3340"},{"BSTAR":"0.00081551000000","ARG_OF_PERICENTER":"105.3227","TLE_LINE2":"2 50825  53.2148 278.4895 0000894 105.3227 254.7864 15.08853636 70614","OBJECT_TYPE":"PAYLOAD","TIME_SYSTEM":"UTC","EPHEMERIS_TYPE":"0","TLE_LINE1":"1 50825U 22001Y   23097.81805158  .00012720  00000-0  81551-3 0  9997","ELEMENT_SET_NO":"999","REV_AT_EPOCH":"7061","MEAN_MOTION":"15.08853636","REF_FRAME":"TEME","PERIOD":"95.437","EPOCH":"2023-04-07T19:37:59.656512","NORAD_CAT_ID":"50825","APOAPSIS":"540.322","MEAN_MOTION_DDOT":"0.0000000000000","MEAN_MOTION_DOT":"0.00012720","FILE":"3882815","GP_ID":"229692374","CENTER_NAME":"EARTH","PERIAPSIS":"539.085","INCLINATION":"53.2148","MEAN_ANOMALY":"254.7864","OBJECT_ID":"2022-001Y","SEMIMAJOR_AXIS":"6917.839","LAUNCH_DATE":"2022-01-06","COUNTRY_CODE":"US","RCS_SIZE":"LARGE","SITE":"AFETR","DECAY_DATE":null,"ECCENTRICITY":"0.00008940","MEAN_ELEMENT_THEORY":"SGP4","OBJECT_NAME":"STARLINK-3332","RA_OF_ASC_NODE":"278.4895","CLASSIFICATION_TYPE":"U"},{"MEAN_ELEMENT_THEORY":"SGP4","OBJECT_NAME":"STARLINK-3337","CLASSIFICATION_TYPE":"U","RA_OF_ASC_NODE":"280.0797","SEMIMAJOR_AXIS":"6917.880","OBJECT_ID":"2022-001Z","COUNTRY_CODE":"US","LAUNCH_DATE":"2022-01-06","RCS_SIZE":"LARGE","DECAY_DATE":null,"ECCENTRICITY":"0.00011450","SITE":"AFETR","GP_ID":"229685455","CENTER_NAME":"EARTH","PERIAPSIS":"538.953","MEAN_ANOMALY":"279.5015","INCLINATION":"53.2147","EPOCH":"2023-04-07T11:09:16.562592","NORAD_CAT_ID":"50826","MEAN_MOTION_DDOT":"0.0000000000000","APOAPSIS":"540.537","FILE":"3882626","MEAN_MOTION_DOT":"0.00001464","REV_AT_EPOCH":"6929","TLE_LINE1":"1 50826U 22001Z   23097.46477503  .00001464  00000-0  11003-3 0  9996","ELEMENT_SET_NO":"999","EPHEMERIS_TYPE":"0","PERIOD":"95.438","REF_FRAME":"TEME","MEAN_MOTION":"15.08840115","OBJECT_TYPE":"PAYLOAD","TIME_SYSTEM":"UTC","BSTAR":"0.00011003000000","TLE_LINE2":"2 50826  53.2147 280.0797 0001145  80.6107 279.5015 15.08840115 69299","ARG_OF_PERICENTER":"80.6107"},{"INCLINATION":"53.2130","PERIAPSIS":"538.652","MEAN_ANOMALY":"266.5132","GP_ID":"229683708","CENTER_NAME":"EARTH","APOAPSIS":"540.829","MEAN_MOTION_DDOT":"0.0000000000000","MEAN_MOTION_DOT":"0.00005256","FILE":"3882626","EPOCH":"2023-04-07T11:56:58.274880","NORAD_CAT_ID":"50827","RA_OF_ASC_NODE":"279.9259","CLASSIFICATION_TYPE":"U","MEAN_ELEMENT_THEORY":"SGP4","OBJECT_NAME":"STARLINK-3329","RCS_SIZE":"LARGE","SITE":"AFETR","DECAY_DATE":null,"ECCENTRICITY":"0.00015730","OBJECT_ID":"2022-001AA","SEMIMAJOR_AXIS":"6917.876","LAUNCH_DATE":"2022-01-06","COUNTRY_CODE":"US","BSTAR":"0.00034804000000","ARG_OF_PERICENTER":"93.6040","TLE_LINE2":"2 50827  53.2130 279.9259 0001573  93.6040 266.5132 15.08841555 69292","MEAN_MOTION":"15.08841555","REF_FRAME":"TEME","PERIOD":"95.437","ELEMENT_SET_NO":"999","TLE_LINE1":"1 50827U 22001AA  23097.49789670  .00005256  00000-0  34804-3 0  9998","EPHEMERIS_TYPE":"0","REV_AT_EPOCH":"6929","TIME_SYSTEM":"UTC","OBJECT_TYPE":"PAYLOAD"}];
